NOAA 3                  
1 06920U 73086A   24348.74025177 -.00000022  00000+0  17792-3 0  9998
2 06920 102.2864 346.3514 0006531  55.9464  12.3520 12.40375827313847
